{
  "type": "FeatureCollection",
  "features": [
    {
      "type": "Feature",
      "properties": {
        "norad_id": 66496,
        "name": "STARLINK-35909",
        "group": "last-30-days",
        "lat": 24.359679902298982,
        "lon": 157.10640974103342,
        "alt_km": 411.7681927042304,
        "timestamp": "2025-12-12T05:47:27.525031+00:00",
        "meta_object_name": "STARLINK-35909",
        "meta_object_id": "2025-263M",
        "meta_epoch": "2025-12-11T22:00:01.999584",
        "meta_mean_motion": 15.50463107,
        "meta_eccentricity": 0.00016253,
        "meta_inclination": 43.0001,
        "meta_ra_of_asc_node": 129.9349,
        "meta_arg_of_pericenter": 277.3417,
        "meta_mean_anomaly": 105.9005,
        "meta_ephemeris_type": 0,
        "meta_classification_type": "U",
        "meta_norad_cat_id": 66496,
        "meta_element_set_no": 999,
        "meta_rev_at_epoch": 550,
        "meta_bstar": 0.0022929104,
        "meta_mean_motion_dot": 0.00135972,
        "meta_mean_motion_ddot": 0,
        "tle_line1": "1 66496U 25263M   25345.91668981  .00135972  00000+0  22929-2 0  9998",
        "tle_line2": "2 66496  43.0001 129.9349 0001625 277.3417 105.9005 15.50463107  5505"
      },
      "geometry": {
        "type": "Point",
        "coordinates": [
          157.10640974103342,
          24.359679902298982
        ]
      }
    },
    {
      "type": "Feature",
      "properties": {
        "norad_id": 66497,
        "name": "STARLINK-35899",
        "group": "last-30-days",
        "lat": 25.497957699928023,
        "lon": 158.8149024032226,
        "alt_km": 411.52280864522254,
        "timestamp": "2025-12-12T05:47:27.525041+00:00",
        "meta_object_name": "STARLINK-35899",
        "meta_object_id": "2025-263N",
        "meta_epoch": "2025-12-11T22:00:01.999584",
        "meta_mean_motion": 15.50456707,
        "meta_eccentricity": 0.00016199,
        "meta_inclination": 43.0002,
        "meta_ra_of_asc_node": 129.9294,
        "meta_arg_of_pericenter": 280.9595,
        "meta_mean_anomaly": 104.2048,
        "meta_ephemeris_type": 0,
        "meta_classification_type": "U",
        "meta_norad_cat_id": 66497,
        "meta_element_set_no": 999,
        "meta_rev_at_epoch": 550,
        "meta_bstar": 0.0027388682,
        "meta_mean_motion_dot": 0.00163014,
        "meta_mean_motion_ddot": 0,
        "tle_line1": "1 66497U 25263N   25345.91668981  .00163014  00000+0  27389-2 0  9992",
        "tle_line2": "2 66497  43.0002 129.9294 0001619 280.9595 104.2048 15.50456707  5503"
      },
      "geometry": {
        "type": "Point",
        "coordinates": [
          158.8149024032226,
          25.497957699928023
        ]
      }
    },
    {
      "type": "Feature",
      "properties": {
        "norad_id": 66498,
        "name": "STARLINK-35907",
        "group": "last-30-days",
        "lat": -18.06806869936378,
        "lon": 107.69775892457454,
        "alt_km": 445.421210483767,
        "timestamp": "2025-12-12T05:47:27.525053+00:00",
        "meta_object_name": "STARLINK-35907",
        "meta_object_id": "2025-263P",
        "meta_epoch": "2025-12-11T22:00:01.999584",
        "meta_mean_motion": 15.40656984,
        "meta_eccentricity": 0.000144,
        "meta_inclination": 43.0005,
        "meta_ra_of_asc_node": 130.0612,
        "meta_arg_of_pericenter": 263.0521,
        "meta_mean_anomaly": 67.4241,
        "meta_ephemeris_type": 0,
        "meta_classification_type": "U",
        "meta_norad_cat_id": 66498,
        "meta_element_set_no": 999,
        "meta_rev_at_epoch": 550,
        "meta_bstar": 0.0020227569,
        "meta_mean_motion_dot": 0.00085017,
        "meta_mean_motion_ddot": 0,
        "tle_line1": "1 66498U 25263P   25345.91668981  .00085017  00000+0  20228-2 0  9994",
        "tle_line2": "2 66498  43.0005 130.0612 0001440 263.0521  67.4241 15.40656984  5500"
      },
      "geometry": {
        "type": "Point",
        "coordinates": [
          107.69775892457454,
          -18.06806869936378
        ]
      }
    },
    {
      "type": "Feature",
      "properties": {
        "norad_id": 66499,
        "name": "STARLINK-35816",
        "group": "last-30-days",
        "lat": 6.9609917385052125,
        "lon": 135.62850069520113,
        "alt_km": 441.07154211291163,
        "timestamp": "2025-12-12T05:47:27.525063+00:00",
        "meta_object_name": "STARLINK-35816",
        "meta_object_id": "2025-263Q",
        "meta_epoch": "2025-12-11T22:00:01.999584",
        "meta_mean_motion": 15.42792183,
        "meta_eccentricity": 0.0001643,
        "meta_inclination": 43.0002,
        "meta_ra_of_asc_node": 129.9746,
        "meta_arg_of_pericenter": 281.0289,
        "meta_mean_anomaly": 85.1693,
        "meta_ephemeris_type": 0,
        "meta_classification_type": "U",
        "meta_norad_cat_id": 66499,
        "meta_element_set_no": 999,
        "meta_rev_at_epoch": 550,
        "meta_bstar": -0.053369271,
        "meta_mean_motion_dot": -0.02115698,
        "meta_mean_motion_ddot": 0,
        "tle_line1": "1 66499U 25263Q   25345.91668981 -.02115698  00000+0 -53369-1 0  9999",
        "tle_line2": "2 66499  43.0002 129.9746 0001643 281.0289  85.1693 15.42792183  5501"
      },
      "geometry": {
        "type": "Point",
        "coordinates": [
          135.62850069520113,
          6.9609917385052125
        ]
      }
    },
    {
      "type": "Feature",
      "properties": {
        "norad_id": 66500,
        "name": "STARLINK-35894",
        "group": "last-30-days",
        "lat": -32.40899114849935,
        "lon": 85.31200007586716,
        "alt_km": 446.2143143408348,
        "timestamp": "2025-12-12T05:47:27.525074+00:00",
        "meta_object_name": "STARLINK-35894",
        "meta_object_id": "2025-263R",
        "meta_epoch": "2025-12-11T20:00:01.999872",
        "meta_mean_motion": 15.41412425,
        "meta_eccentricity": 0.00016947,
        "meta_inclination": 43.0009,
        "meta_ra_of_asc_node": 130.6051,
        "meta_arg_of_pericenter": 282.6048,
        "meta_mean_anomaly": 279.9215,
        "meta_ephemeris_type": 0,
        "meta_classification_type": "U",
        "meta_norad_cat_id": 66500,
        "meta_element_set_no": 999,
        "meta_rev_at_epoch": 549,
        "meta_bstar": -0.025973252,
        "meta_mean_motion_dot": -0.01010906,
        "meta_mean_motion_ddot": 0,
        "tle_line1": "1 66500U 25263R   25345.83335648 -.01010906  00000+0 -25973-1 0  9999",
        "tle_line2": "2 66500  43.0009 130.6051 0001694 282.6048 279.9215 15.41412425  5493"
      },
      "geometry": {
        "type": "Point",
        "coordinates": [
          85.31200007586716,
          -32.40899114849935
        ]
      }
    },
    {
      "type": "Feature",
      "properties": {
        "norad_id": 66501,
        "name": "STARLINK-35897",
        "group": "last-30-days",
        "lat": 20.195880643281118,
        "lon": 151.30230530844523,
        "alt_km": 431.0177438912533,
        "timestamp": "2025-12-12T05:47:27.525084+00:00",
        "meta_object_name": "STARLINK-35897",
        "meta_object_id": "2025-263S",
        "meta_epoch": "2025-12-11T22:00:01.999584",
        "meta_mean_motion": 15.45620269,
        "meta_eccentricity": 0.00015735,
        "meta_inclination": 42.9995,
        "meta_ra_of_asc_node": 129.9345,
        "meta_arg_of_pericenter": 276.7485,
        "meta_mean_anomaly": 106.2633,
        "meta_ephemeris_type": 0,
        "meta_classification_type": "U",
        "meta_norad_cat_id": 66501,
        "meta_element_set_no": 999,
        "meta_rev_at_epoch": 550,
        "meta_bstar": -0.045894773,
        "meta_mean_motion_dot": -0.02017047,
        "meta_mean_motion_ddot": 0,
        "tle_line1": "1 66501U 25263S   25345.91668981 -.02017047  00000+0 -45895-1 0  9997",
        "tle_line2": "2 66501  42.9995 129.9345 0001573 276.7485 106.2633 15.45620269  5507"
      },
      "geometry": {
        "type": "Point",
        "coordinates": [
          151.30230530844523,
          20.195880643281118
        ]
      }
    },
    {
      "type": "Feature",
      "properties": {
        "norad_id": 66502,
        "name": "STARLINK-35922",
        "group": "last-30-days",
        "lat": 32.78791666734133,
        "lon": 171.72670755866994,
        "alt_km": 410.66400108928883,
        "timestamp": "2025-12-12T05:47:27.525094+00:00",
        "meta_object_name": "STARLINK-35922",
        "meta_object_id": "2025-263T",
        "meta_epoch": "2025-12-11T22:00:01.999584",
        "meta_mean_motion": 15.50470957,
        "meta_eccentricity": 0.00016869,
        "meta_inclination": 43,
        "meta_ra_of_asc_node": 129.895,
        "meta_arg_of_pericenter": 278.3719,
        "meta_mean_anomaly": 120.2159,
        "meta_ephemeris_type": 0,
        "meta_classification_type": "U",
        "meta_norad_cat_id": 66502,
        "meta_element_set_no": 999,
        "meta_rev_at_epoch": 550,
        "meta_bstar": 0.0020181301,
        "meta_mean_motion_dot": 0.00119415,
        "meta_mean_motion_ddot": 0,
        "tle_line1": "1 66502U 25263T   25345.91668981  .00119415  00000+0  20181-2 0  9998",
        "tle_line2": "2 66502  43.0000 129.8950 0001686 278.3719 120.2159 15.50470957  5503"
      },
      "geometry": {
        "type": "Point",
        "coordinates": [
          171.72670755866994,
          32.78791666734133
        ]
      }
    }
  ]
}